NORAD_CAT_ID,OBJECT_NAME,OBJECT_TYPE,EPOCH,MEAN_MOTION,ECCENTRICITY,INCLINATION,RA_OF_ASC_NODE,ARG_OF_PERICENTER,MEAN_ANOMALY,BSTAR,MEAN_MOTION_DOT,MEAN_MOTION_DDOT,TLE_LINE0,TLE_LINE1,TLE_LINE2,SEMIMAJOR_AXIS,PERIOD,APOGEE,PERIGEE,DECAYED
55659.0,STARLINK-5477,PAYLOAD,2023-10-07 20:54:11,14.98324663,0.0002797,70.0009,233.0088,272.3705,87.7134,1.3906e-05,7.3e-07,0.0,0 STARLINK-5477,1 55659U 23021AH  23280.87096172  .00000073  00000-0  13906-4 0  9996,2 55659  70.0009 233.0088 0002797 272.3705  87.7134 14.98324663 36895,6950.209,96.107,574.018,570.13,0.0
55659.0,STARLINK-5477,PAYLOAD,2023-10-08 03:18:43,14.98325076,0.000332,70.0002,232.3364,267.6892,92.3887,5.1649e-05,5.23e-06,0.0,0 STARLINK-5477,1 55659U 23021AH  23281.13800020  .00000523  00000-0  51649-4 0  9997,2 55659  70.0002 232.3364 0003320 267.6892  92.3887 14.98325076 36632,6950.208,96.107,574.381,569.766,0.0
55659.0,STARLINK-5477,PAYLOAD,2023-10-08 06:30:59,14.98325444,0.0003222,70.0008,231.9998,267.3862,92.6928,0.00018035,2.059e-05,0.0,0 STARLINK-5477,1 55659U 23021AH  23281.27151710  .00002059  00000-0  18035-3 0  9994,2 55659  70.0008 231.9998 0003222 267.3862  92.6928 14.98325444 36954,6950.207,96.107,574.311,569.833,0.0
55659.0,STARLINK-5477,PAYLOAD,2023-10-08 14:31:39,14.98334427,0.0003111,70.001,231.1579,271.4842,88.5961,1.9648e-05,1.41e-06,0.0,0 STARLINK-5477,1 55659U 23021AH  23281.60531514  .00000141  00000-0  19648-4 0  9997,2 55659  70.0010 231.1579 0003111 271.4842  88.5961 14.98334427 36700,6950.179,96.107,574.206,569.882,0.0
55659.0,STARLINK-5477,PAYLOAD,2023-10-08 20:56:11,14.98328542,0.0003126,70.001,230.485,267.7458,92.3343,4.7331e-05,4.72e-06,0.0,0 STARLINK-5477,1 55659U 23021AH  23281.87235787  .00000472  00000-0  47331-4 0  9996,2 55659  70.0010 230.4850 0003126 267.7458  92.3343 14.98328542 37047,6950.197,96.107,574.235,569.89,0.0
55659.0,STARLINK-5477,PAYLOAD,2023-10-09 08:09:07,14.98341377,0.0002889,70.001,229.3069,263.1526,96.9304,0.00011332,1.26e-05,0.0,0 STARLINK-5477,1 55659U 23021AH  23282.33966715  .00001260  00000-0  11332-3 0  9997,2 55659  70.0010 229.3069 0002889 263.1526  96.9304 14.98341377 36819,6950.158,96.106,574.031,570.015,0.0
55659.0,STARLINK-5477,PAYLOAD,2023-10-09 20:58:12,14.98328588,0.0002332,70.0022,227.9621,280.3771,79.7125,0.0001294,1.451e-05,0.0,0 STARLINK-5477,1 55659U 23021AH  23282.87375584  .00001451  00000-0  12940-3 0  9992,2 55659  70.0022 227.9621 0002332 280.3771  79.7125 14.98328588 37197,6950.197,96.107,573.683,570.441,0.0
55659.0,STARLINK-5477,PAYLOAD,2023-10-10 01:46:36,14.98324555,0.0002943,70.0009,227.4553,269.3616,90.7206,5.1862e-05,5.26e-06,0.0,0 STARLINK-5477,1 55659U 23021AH  23283.07403935  .00000526  00000-0  51862-4 0  9996,2 55659  70.0009 227.4553 0002943 269.3616  90.7206 14.98324555 36927,6950.21,96.107,574.12,570.029,0.0
55659.0,STARLINK-5477,PAYLOAD,2023-10-10 06:35:00,14.9833105,0.0002769,70.0013,226.9517,266.315,93.7692,5.6102e-05,5.77e-06,0.0,0 STARLINK-5477,1 55659U 23021AH  23283.27431510  .00000577  00000-0  56102-4 0  9996,2 55659  70.0013 226.9517 0002769 266.3150  93.7692 14.98331050 36955,6950.19,96.107,573.979,570.13,0.0
55659.0,STARLINK-5477,PAYLOAD,2023-10-10 21:00:13,14.98322382,0.0002718,70.0018,225.4378,262.1714,97.9136,-1.6911e-07,-9.5e-07,0.0,0 STARLINK-5477,1 55659U 23021AH  23283.87516185 -.00000095  00000-0 -16911-6 0  9997,2 55659  70.0018 225.4378 0002718 262.1714  97.9136 14.98322382 37344,6950.216,96.107,573.971,570.192,0.0
55659.0,STARLINK-5477,PAYLOAD,2023-10-11 06:37:03,14.98296348,0.0002485,70.0021,224.4288,254.1479,105.9406,0.00048338,5.674e-05,0.0,0 STARLINK-5477,1 55659U 23021AH  23284.27572939  .00005674  00000-0  48338-3 0  9992,2 55659  70.0021 224.4288 0002485 254.1479 105.9406 14.98296348 37103,6950.297,96.109,573.889,570.435,0.0
55659.0,STARLINK-5477,PAYLOAD,2023-10-11 13:01:33,14.98368663,0.0002338,70.0029,223.7529,279.0425,81.047,-0.00088011,-0.00010588,0.0,0 STARLINK-5477,1 55659U 23021AH  23284.54275399 -.00010588  00000-0 -88011-3 0  9996,2 55659  70.0029 223.7529 0002338 279.0425  81.0470 14.98368663 37447,6950.073,96.105,573.563,570.313,0.0
55659.0,STARLINK-5477,PAYLOAD,2023-10-12 05:02:54,14.98333651,0.000284,70.0009,222.0699,265.9641,94.1193,0.00012365,1.383e-05,0.0,0 STARLINK-5477,1 55659U 23021AH  23285.21035406  .00001383  00000-0  12365-3 0  9994,2 55659  70.0009 222.0699 0002840 265.9641  94.1193 14.98333651 37241,6950.182,96.107,574.02,570.073,0.0
55659.0,STARLINK-5477,PAYLOAD,2023-10-12 13:03:35,14.98333111,0.0002583,70.0017,221.2274,279.11,80.9767,3.5891e-05,3.35e-06,0.0,0 STARLINK-5477,1 55659U 23021AH  23285.54415756  .00000335  00000-0  35891-4 0  9996,2 55659  70.0017 221.2274 0002583 279.1100  80.9767 14.98333111 37590,6950.183,96.107,573.844,570.253,0.0
55659.0,STARLINK-5477,PAYLOAD,2023-10-12 22:40:23,14.98327407,0.0002759,70.0008,220.2182,265.884,94.2004,7.0771e-05,7.51e-06,0.0,0 STARLINK-5477,1 55659U 23021AH  23285.94472008  .00000751  00000-0  70771-4 0  9991,2 55659  70.0008 220.2182 0002759 265.8840  94.2004 14.98327407 37655,6950.201,96.107,573.983,570.148,0.0
55659.0,STARLINK-5477,PAYLOAD,2023-10-13 03:28:47,14.98330085,0.0002681,70.0015,219.715,262.9115,97.1739,0.00011654,1.298e-05,0.0,0 STARLINK-5477,1 55659U 23021AH  23286.14499739  .00001298  00000-0  11654-3 0  9995,2 55659  70.0015 219.7150 0002681 262.9115  97.1739 14.98330085 37381,6950.193,96.107,573.921,570.194,0.0
55659.0,STARLINK-5477,PAYLOAD,2023-10-13 13:05:36,14.9833372,0.0002527,70.0025,218.7026,275.1755,84.9115,9.9148e-05,1.09e-05,0.0,0 STARLINK-5477,1 55659U 23021AH  23286.54555577  .00001090  00000-0  99148-4 0  9997,2 55659  70.0025 218.7026 0002527 275.1755  84.9115 14.98333720 37749,6950.181,96.107,573.803,570.29,0.0
55659.0,STARLINK-5477,PAYLOAD,2023-10-13 21:06:16,14.98330424,0.0003065,70.0011,217.8626,271.8255,88.2553,6.4514e-05,6.77e-06,0.0,0 STARLINK-5477,1 55659U 23021AH  23286.87935650  .00000677  00000-0  64514-4 0  9996,2 55659  70.0011 217.8626 0003065 271.8255  88.2553 14.98330424 37792,6950.192,96.107,574.187,569.926,0.0
55659.0,STARLINK-5477,PAYLOAD,2023-10-14 05:06:55,14.98342514,0.0002617,70.0015,217.0198,268.1304,91.9556,0.00013389,1.505e-05,0.0,0 STARLINK-5477,1 55659U 23021AH  23287.21314576  .00001505  00000-0  13389-3 0  9997,2 55659  70.0015 217.0198 0002617 268.1304  91.9556 14.98342514 37548,6950.154,96.106,573.838,570.2,0.0
55659.0,STARLINK-5477,PAYLOAD,2023-10-14 13:07:37,14.98326811,0.0002986,70.0015,216.1806,271.0034,89.0783,-9.1243e-05,-1.181e-05,0.0,0 STARLINK-5477,1 55659U 23021AH  23287.54695949 -.00001181  00000-0 -91243-4 0  9997,2 55659  70.0015 216.1806 0002986 271.0034  89.0783 14.98326811 37896,6950.203,96.107,574.143,569.992,0.0
55659.0,STARLINK-5477,PAYLOAD,2023-10-14 21:08:18,14.98316061,0.0002714,70.0012,215.3388,269.5621,90.5227,-0.00013571,-1.711e-05,0.0,0 STARLINK-5477,1 55659U 23021AH  23287.88077007 -.00001711  00000-0 -13571-3 0  9999,2 55659  70.0012 215.3388 0002714 269.5621  90.5227 14.98316061 37641,6950.236,96.108,573.987,570.215,0.0
55659.0,STARLINK-5477,PAYLOAD,2023-10-15 13:09:38,14.98329379,0.0003019,70.0006,213.6548,265.0887,94.9928,-0.00012939,-1.636e-05,0.0,0 STARLINK-5477,1 55659U 23021AH  23288.54836457 -.00001636  00000-0 -12939-3 0  9998,2 55659  70.0006 213.6548 0003019 265.0887  94.9928 14.98329379 38044,6950.195,96.107,574.158,569.962,0.0
55659.0,STARLINK-5477,PAYLOAD,2023-10-15 21:10:18,14.98332888,0.0003156,70.0004,212.8134,267.5935,92.4863,5.2941e-05,5.39e-06,0.0,0 STARLINK-5477,1 55659U 23021AH  23288.88215745  .00000539  00000-0  52941-4 0  9993,2 55659  70.0004 212.8134 0003156 267.5935  92.4863 14.98332888 37798,6950.184,96.107,574.242,569.855,0.0
55659.0,STARLINK-5477,PAYLOAD,2023-10-16 05:10:57,14.98347666,0.000295,70.0007,211.9713,264.3884,95.6939,6.7869e-05,7.17e-06,0.0,0 STARLINK-5477,1 55659U 23021AH  23289.21594672  .00000717  00000-0  67869-4 0  9993,2 55659  70.0007 211.9713 0002950 264.3884  95.6939 14.98347666 37848,6950.138,96.106,574.054,569.953,0.0
55659.0,STARLINK-5477,PAYLOAD,2023-10-17 11:37:32,14.98327806,0.0002714,70.0019,208.7735,267.0475,93.0374,6.464e-05,6.78e-06,0.0,0 STARLINK-5477,1 55659U 23021AH  23290.48439993  .00000678  00000-0  64640-4 0  9998,2 55659  70.0019 208.7735 0002714 267.0475  93.0374 14.98327806 38034,6950.2,96.107,573.951,570.178,0.0
55659.0,STARLINK-5477,PAYLOAD,2023-10-18 02:02:44,14.98334361,0.0002534,70.002,207.2594,261.2763,98.8109,-2.9119e-05,-4.4e-06,0.0,0 STARLINK-5477,1 55659U 23021AH  23291.08523717 -.00000440  00000-0 -29119-4 0  9994,2 55659  70.0020 207.2594 0002534 261.2763  98.8109 14.98334361 38425,6950.179,96.107,573.806,570.283,0.0
55659.0,STARLINK-5477,PAYLOAD,2023-10-18 11:39:32,14.98337978,0.0002628,70.0011,206.2501,268.0604,92.0254,-0.00011824,-1.504e-05,0.0,0 STARLINK-5477,1 55659U 23021AH  23291.48579550 -.00001504  00000-0 -11824-3 0  9999,2 55659  70.0011 206.2501 0002628 268.0604  92.0254 14.98337978 38182,6950.168,96.106,573.86,570.207,0.0
55659.0,STARLINK-5477,PAYLOAD,2023-10-19 03:40:52,14.98334788,0.0002725,70.0011,204.5672,272.4496,87.6351,0.00010409,1.149e-05,0.0,0 STARLINK-5477,1 55659U 23021AH  23292.15338996  .00001149  00000-0  10409-3 0  9992,2 55659  70.0011 204.5672 0002725 272.4496  87.6351 14.98334788 38586,6950.178,96.107,573.937,570.149,0.0
55659.0,STARLINK-5477,PAYLOAD,2023-10-19 18:06:06,14.98325588,0.0002822,70.0022,203.0515,272.2966,87.787,4.3982e-05,4.32e-06,0.0,0 STARLINK-5477,1 55659U 23021AH  23292.75423672  .00000432  00000-0  43982-4 0  9991,2 55659  70.0022 203.0515 0002822 272.2966  87.7870 14.98325588 38378,6950.207,96.107,574.033,570.11,0.0
55659.0,STARLINK-5477,PAYLOAD,2023-10-20 03:42:53,14.9833915,0.0002777,70.0009,202.0424,268.5556,91.5285,9.0874e-05,9.92e-06,0.0,0 STARLINK-5477,1 55659U 23021AH  23293.15478533  .00000992  00000-0  90874-4 0  9995,2 55659  70.0009 202.0424 0002777 268.5556  91.5285 14.98339150 38433,6950.165,96.106,573.96,570.1,0.0
